STARLINK-31259          
1 59076U 24041C   26068.08745656 -.00001117  00000+0 -31083-4 0  9991
2 59076  43.0014 313.7493 0001253 278.0582  82.0128 15.27573060113130
HAWK-11C                
1 62381U 24247E   26068.51221537  .00009223  00000+0  33290-3 0  9992
2 62381  45.0045 114.8762 0005900 329.7040  30.3502 15.28848020 67743
